{
  "type": "FeatureCollection",
  "features": [
    {
      "type": "Feature",
      "properties": {
        "norad_id": 40118,
        "name": "GAOFEN-2",
        "group": "resource",
        "lat": 29.036608595729124,
        "lon": 46.493200436428324,
        "alt_km": 623.8536550458448,
        "timestamp": "2025-12-17T19:34:07.701905+00:00",
        "meta_object_name": "GAOFEN-2",
        "meta_object_id": "2014-049A",
        "meta_epoch": "2025-12-17T08:04:59.443104",
        "meta_mean_motion": 14.80618581,
        "meta_eccentricity": 0.00086809,
        "meta_inclination": 98.0385,
        "meta_ra_of_asc_node": 50.5135,
        "meta_arg_of_pericenter": 100.2098,
        "meta_mean_anomaly": 260.0093,
        "meta_ephemeris_type": 0,
        "meta_classification_type": "U",
        "meta_norad_cat_id": 40118,
        "meta_element_set_no": 999,
        "meta_rev_at_epoch": 61232,
        "meta_bstar": 0.00012693781,
        "meta_mean_motion_dot": 9.21e-06,
        "meta_mean_motion_ddot": 0,
        "tle_line1": "1 40118U 14049A   25351.33679911  .00000921  00000+0  12694-3 0  9993",
        "tle_line2": "2 40118  98.0385  50.5135 0008680 100.2098 260.0093 14.80618581612326"
      },
      "geometry": {
        "type": "Point",
        "coordinates": [
          46.493200436428324,
          29.036608595729124
        ]
      }
    },
    {
      "type": "Feature",
      "properties": {
        "norad_id": 40143,
        "name": "YAOGAN-21",
        "group": "resource",
        "lat": 58.15233945843889,
        "lon": 23.207199017197812,
        "alt_km": 483.7180966321739,
        "timestamp": "2025-12-17T19:34:07.701915+00:00",
        "meta_object_name": "YAOGAN-21",
        "meta_object_id": "2014-053A",
        "meta_epoch": "2025-12-17T08:16:44.518944",
        "meta_mean_motion": 15.23724383,
        "meta_eccentricity": 0.0009371,
        "meta_inclination": 97.1752,
        "meta_ra_of_asc_node": 34.4582,
        "meta_arg_of_pericenter": 26.375,
        "meta_mean_anomaly": 333.7963,
        "meta_ephemeris_type": 0,
        "meta_classification_type": "U",
        "meta_norad_cat_id": 40143,
        "meta_element_set_no": 999,
        "meta_rev_at_epoch": 62724,
        "meta_bstar": 0.00016837172,
        "meta_mean_motion_dot": 3.981e-05,
        "meta_mean_motion_ddot": 0,
        "tle_line1": "1 40143U 14053A   25351.34495971  .00003981  00000+0  16837-3 0  9991",
        "tle_line2": "2 40143  97.1752  34.4582 0009371  26.3750 333.7963 15.23724383627247"
      },
      "geometry": {
        "type": "Point",
        "coordinates": [
          23.207199017197812,
          58.15233945843889
        ]
      }
    },
    {
      "type": "Feature",
      "properties": {
        "norad_id": 40275,
        "name": "YAOGAN-22",
        "group": "resource",
        "lat": 54.85801833369993,
        "lon": 119.66123386824077,
        "alt_km": 1201.052578024207,
        "timestamp": "2025-12-17T19:34:07.701926+00:00",
        "meta_object_name": "YAOGAN-22",
        "meta_object_id": "2014-063A",
        "meta_epoch": "2025-12-17T08:19:54.203232",
        "meta_mean_motion": 13.15522836,
        "meta_eccentricity": 0.00059876,
        "meta_inclination": 100.7424,
        "meta_ra_of_asc_node": 134.8317,
        "meta_arg_of_pericenter": 236.9635,
        "meta_mean_anomaly": 123.0901,
        "meta_ephemeris_type": 0,
        "meta_classification_type": "U",
        "meta_norad_cat_id": 40275,
        "meta_element_set_no": 999,
        "meta_rev_at_epoch": 53590,
        "meta_bstar": 4.8590485e-05,
        "meta_mean_motion_dot": -2.8e-07,
        "meta_mean_motion_ddot": 0,
        "tle_line1": "1 40275U 14063A   25351.34715513 -.00000028  00000+0  48590-4 0  9997",
        "tle_line2": "2 40275 100.7424 134.8317 0005987 236.9635 123.0901 13.15522836535902"
      },
      "geometry": {
        "type": "Point",
        "coordinates": [
          119.66123386824077,
          54.85801833369993
        ]
      }
    },
    {
      "type": "Feature",
      "properties": {
        "norad_id": 40298,
        "name": "ASNARO",
        "group": "resource",
        "lat": 30.595807508747058,
        "lon": 63.25133717689345,
        "alt_km": 504.66525254969474,
        "timestamp": "2025-12-17T19:34:07.701936+00:00",
        "meta_object_name": "ASNARO",
        "meta_object_id": "2014-070A",
        "meta_epoch": "2025-12-17T08:22:14.522880",
        "meta_mean_motion": 15.19592123,
        "meta_eccentricity": 0.00055733,
        "meta_inclination": 97.3653,
        "meta_ra_of_asc_node": 67.1827,
        "meta_arg_of_pericenter": 109.9899,
        "meta_mean_anomaly": 250.1936,
        "meta_ephemeris_type": 0,
        "meta_classification_type": "U",
        "meta_norad_cat_id": 40298,
        "meta_element_set_no": 999,
        "meta_rev_at_epoch": 61639,
        "meta_bstar": 0.000384879,
        "meta_mean_motion_dot": 8.131e-05,
        "meta_mean_motion_ddot": 0,
        "tle_line1": "1 40298U 14070A   25351.34877920  .00008131  00000+0  38488-3 0  9997",
        "tle_line2": "2 40298  97.3653  67.1827 0005573 109.9899 250.1936 15.19592123616393"
      },
      "geometry": {
        "type": "Point",
        "coordinates": [
          63.25133717689345,
          30.595807508747058
        ]
      }
    },
    {
      "type": "Feature",
      "properties": {
        "norad_id": 40310,
        "name": "YAOGAN-24",
        "group": "resource",
        "lat": -66.21799749812799,
        "lon": 141.8423276870492,
        "alt_km": 658.927345836255,
        "timestamp": "2025-12-17T19:34:07.701946+00:00",
        "meta_object_name": "YAOGAN-24",
        "meta_object_id": "2014-072A",
        "meta_epoch": "2025-12-17T08:29:15.823104",
        "meta_mean_motion": 14.76188454,
        "meta_eccentricity": 0.00149203,
        "meta_inclination": 98.1214,
        "meta_ra_of_asc_node": 122.4708,
        "meta_arg_of_pericenter": 124.0304,
        "meta_mean_anomaly": 236.2325,
        "meta_ephemeris_type": 0,
        "meta_classification_type": "U",
        "meta_norad_cat_id": 40310,
        "meta_element_set_no": 999,
        "meta_rev_at_epoch": 59689,
        "meta_bstar": 0.00015864022,
        "meta_mean_motion_dot": 1.046e-05,
        "meta_mean_motion_ddot": 0,
        "tle_line1": "1 40310U 14072A   25351.35365536  .00001046  00000+0  15864-3 0  9991",
        "tle_line2": "2 40310  98.1214 122.4708 0014920 124.0304 236.2325 14.76188454596897"
      },
      "geometry": {
        "type": "Point",
        "coordinates": [
          141.8423276870492,
          -66.21799749812799
        ]
      }
    },
    {
      "type": "Feature",
      "properties": {
        "norad_id": 40336,
        "name": "CBERS 4",
        "group": "resource",
        "lat": 10.781446968636201,
        "lon": 48.05990222916756,
        "alt_km": 774.8953922317569,
        "timestamp": "2025-12-17T19:34:07.701957+00:00",
        "meta_object_name": "CBERS 4",
        "meta_object_id": "2014-079A",
        "meta_epoch": "2025-12-17T07:48:30.000672",
        "meta_mean_motion": 14.35519308,
        "meta_eccentricity": 0.00017432,
        "meta_inclination": 98.3308,
        "meta_ra_of_asc_node": 49.1856,
        "meta_arg_of_pericenter": 107.7294,
        "meta_mean_anomaly": 252.4083,
        "meta_ephemeris_type": 0,
        "meta_classification_type": "U",
        "meta_norad_cat_id": 40336,
        "meta_element_set_no": 999,
        "meta_rev_at_epoch": 57786,
        "meta_bstar": 3.37449e-05,
        "meta_mean_motion_dot": 5.5e-07,
        "meta_mean_motion_ddot": 0,
        "tle_line1": "1 40336U 14079A   25351.32534723  .00000055  00000+0  33745-4 0  9997",
        "tle_line2": "2 40336  98.3308  49.1856 0001743 107.7294 252.4083 14.35519308577863"
      },
      "geometry": {
        "type": "Point",
        "coordinates": [
          48.05990222916756,
          10.781446968636201
        ]
      }
    },
    {
      "type": "Feature",
      "properties": {
        "norad_id": 40362,
        "name": "YAOGAN-26",
        "group": "resource",
        "lat": 59.11523950231844,
        "lon": -19.654807749032884,
        "alt_km": 439.2270662739711,
        "timestamp": "2025-12-17T19:34:07.701966+00:00",
        "meta_object_name": "YAOGAN-26",
        "meta_object_id": "2014-088A",
        "meta_epoch": "2025-12-17T06:49:48.207072",
        "meta_mean_motion": 15.39466461,
        "meta_eccentricity": 0.00056751,
        "meta_inclination": 97.0633,
        "meta_ra_of_asc_node": 351.7976,
        "meta_arg_of_pericenter": 16.6565,
        "meta_mean_anomaly": 343.4867,
        "meta_ephemeris_type": 0,
        "meta_classification_type": "U",
        "meta_norad_cat_id": 40362,
        "meta_element_set_no": 999,
        "meta_rev_at_epoch": 60964,
        "meta_bstar": 0.00050233326,
        "meta_mean_motion_dot": 0.00019652,
        "meta_mean_motion_ddot": 0,
        "tle_line1": "1 40362U 14088A   25351.28458573  .00019652  00000+0  50233-3 0  9992",
        "tle_line2": "2 40362  97.0633 351.7976 0005675  16.6565 343.4867 15.39466461609640"
      },
      "geometry": {
        "type": "Point",
        "coordinates": [
          -19.654807749032884,
          59.11523950231844
        ]
      }
    }
  ]
}